OBJECT_NAME,OBJECT_ID,EPOCH,MEAN_MOTION,ECCENTRICITY,INCLINATION,RA_OF_ASC_NODE,ARG_OF_PERICENTER,MEAN_ANOMALY,EPHEMERIS_TYPE,CLASSIFICATION_TYPE,NORAD_CAT_ID,ELEMENT_SET_NO,REV_AT_EPOCH,BSTAR,MEAN_MOTION_DOT,MEAN_MOTION_DDOT
STARLINK-4181,2022-062BE,2026-05-21T23:58:06.476448,15.08841637,.00015807,53.2194,44.5896,111.0960,249.0202,0,U,52882,999,21714,-.1841551E-5,-.317E-5,0
GLOBALSTAR M087,2022-064A,2026-05-22T06:27:50.531040,12.62268807,.00002049,51.9967,141.3581,304.6157,55.4690,0,U,52888,999,18786,-.70112527E-4,-.116E-5,0
PVSAT,2022-065A,2026-05-22T05:07:26.565024,14.59525857,.00106284,98.2251,281.8354,98.3639,261.8766,0,U,52894,999,20856,.48602743E-4,.184E-5,0
KSLV-II DUMMY,2022-065B,2026-05-22T07:32:50.246016,14.58687154,.0009464,98.2310,282.4138,113.6763,246.5431,0,U,52895,999,20858,.1458756E-4,.22E-6,0
STEP CUBE LAB-II,2022-065D,2026-05-22T06:55:00.469632,14.63254681,.00099304,98.2201,286.2750,104.2310,255.9996,0,U,52897,999,20771,.10306927E-3,.483E-5,0
RANDEV,2022-065E,2026-05-22T07:06:23.651712,14.63639816,.00092318,98.2186,286.6229,104.3413,255.8814,0,U,52898,999,20746,.10268454E-3,.486E-5,0
SNUGLITE-II,2022-065F,2026-05-22T03:11:59.619552,14.64290747,.00087959,98.2171,287.0161,104.4157,255.8022,0,U,52899,999,20718,.132788E-3,.652E-5,0
MIMAN,2022-065G,2026-05-22T07:28:59.710944,14.61810271,.0008912,98.2228,284.9300,105.3953,254.8233,0,U,52900,999,20666,.85334694E-4,.379E-5,0
CMS-02 (GSAT-24),2022-067A,2026-05-22T02:33:40.448160,1.00271133,.00025336,0.0270,257.9627,100.9607,2.2368,0,U,52903,999,1434,0,-.173E-5,0
MEASAT 3D,2022-067B,2026-05-22T04:24:21.591936,1.00271556,.00019633,0.0315,1.7986,2.6804,32.9315,0,U,52904,999,1438,0,-.25E-5,0
YAOGAN-35 02A,2022-068A,2026-05-22T03:01:04.206432,15.23786732,.00106353,34.9921,302.6923,203.9372,156.0849,0,U,52907,999,21791,.23604212E-3,.5797E-4,0
YAOGAN-35 02B,2022-068B,2026-05-22T06:48:04.089024,15.56237623,.0003808,34.9956,229.8844,151.9281,208.1650,0,U,52908,999,21865,.71686373E-3,.52289E-3,0
GAOFEN-12 03,2022-069A,2026-05-22T07:03:47.422368,14.79985439,.00008392,97.8303,30.8135,107.2951,252.8353,0,U,52912,999,21078,.33418943E-4,.202E-5,0
SES-22,2022-071A,2026-05-22T07:40:31.267776,1.00272470,.00010668,0.0105,8.5838,39.2825,168.2028,0,U,52933,999,726,0,.96E-6,0
DS-EO,2022-072A,2026-05-22T05:57:38.007648,15.13624490,.00043549,9.9945,17.8194,297.1916,62.7855,0,U,52935,999,21457,.17035209E-3,.3973E-4,0
POEM,2022-072E,2026-05-21T13:55:29.737056,15.23727166,.0023345,9.9521,272.9293,164.3151,195.7790,0,U,52939,999,21544,.18471E-3,.5563E-4,0
WFOV (USA 332),2022-073A,2026-05-21T21:36:03.517344,1.00269476,.00020676,3.6458,78.8500,240.9151,3.0330,0,U,52940,999,1410,0,-.369E-5,0
COSMOS 2557 [GLONASS-K],2022-075A,2026-05-21T19:55:46.138368,2.13101891,.00101102,64.3147,315.4142,278.3928,81.4886,0,U,52984,999,3015,0,-.4E-6,0
STARLINK-4260,2022-076A,2026-05-22T05:42:38.625984,15.08835299,.00012875,53.2179,123.9477,83.6886,276.4252,0,U,52986,999,21394,-.19889209E-4,-.604E-5,0
STARLINK-4259,2022-076B,2026-05-22T06:39:36.577152,15.08836535,.00010761,53.2164,133.7717,72.8667,287.2443,0,U,52987,999,21381,.15842642E-4,-.36E-6,0
STARLINK-4291,2022-076C,2026-05-22T05:37:21.070560,15.08833238,.00010845,53.2179,123.9636,96.8552,263.2564,0,U,52988,999,21394,-.73741315E-4,-.1461E-4,0
STARLINK-4293,2022-076D,2026-05-22T08:00:03.000384,15.32795475,.00014834,53.2180,129.0493,88.0654,28.6273,0,U,52989,999,584,.26140831E-2,.84533E-3,0
STARLINK-4286,2022-076E,2026-05-22T06:29:00.733632,15.08821698,.00012003,53.2168,133.8073,93.7938,266.3191,0,U,52990,999,21381,.90960105E-4,.1159E-4,0
STARLINK-4285,2022-076F,2026-05-22T03:12:56.605536,15.08842833,.00009384,53.2161,134.4196,59.2501,300.8584,0,U,52991,999,21379,-.28438619E-4,-.74E-5,0
STARLINK-4269,2022-076G,2026-05-22T06:19:47.204256,15.08840295,.0001228,53.2167,133.8433,73.3427,286.7700,0,U,52992,999,21381,-.6638886E-5,-.394E-5,0
STARLINK-4256,2022-076J,2026-05-22T05:26:43.551744,15.08847374,.00013815,53.2184,123.9971,77.1554,282.9592,0,U,52994,999,21394,.72764483E-4,.871E-5,0
STARLINK-4296,2022-076K,2026-05-22T03:40:47.038080,15.08834417,.00016872,53.2175,124.3267,64.4321,295.6845,0,U,52995,999,21393,.52094232E-4,.541E-5,0
STARLINK-4295,2022-076L,2026-05-22T05:59:57.938496,15.08838068,.00012175,53.2165,124.1777,76.8116,283.3012,0,U,52996,999,21394,.46457702E-4,.452E-5,0
STARLINK-4254,2022-076N,2026-05-22T05:00:14.187456,15.08840295,.00013328,53.2172,123.9931,86.0606,274.0539,0,U,52998,999,21394,.46431265E-4,.451E-5,0
STARLINK-4217,2022-076P,2026-05-22T03:14:16.141056,15.08836538,.00013057,53.2170,124.4118,75.3474,284.7663,0,U,52999,999,21393,.54092948E-4,.573E-5,0
