STARLINK-4181           
1 52882U 22062BE  26141.99868607 -.00000317  00000+0 -18416-5 0  9991
2 52882  53.2194  44.5896 0001580 111.0960 249.0202 15.08841637217146
GLOBALSTAR M087         
1 52888U 22064A   26142.26933485 -.00000116  00000+0 -70113-4 0  9995
2 52888  51.9967 141.3581 0000204 304.6157  55.4690 12.62268807187866
PVSAT                   
1 52894U 22065A   26142.21350191  .00000184  00000+0  48603-4 0  9997
2 52894  98.2251 281.8354 0010628  98.3639 261.8766 14.59525857208561
KSLV-II DUMMY           
1 52895U 22065B   26142.31447044  .00000022  00000+0  14588-4 0  9999
2 52895  98.2310 282.4138 0009464 113.6763 246.5431 14.58687154208589
STEP CUBE LAB-II        
1 52897U 22065D   26142.28819988  .00000483  00000+0  10307-3 0  9992
2 52897  98.2201 286.2750 0009930 104.2310 255.9996 14.63254681207719
RANDEV                  
1 52898U 22065E   26142.29610708  .00000486  00000+0  10268-3 0  9992
2 52898  98.2186 286.6229 0009231 104.3413 255.8814 14.63639816207463
SNUGLITE-II             
1 52899U 22065F   26142.13332893  .00000652  00000+0  13279-3 0  9992
2 52899  98.2171 287.0161 0008795 104.4157 255.8022 14.64290747207185
MIMAN                   
1 52900U 22065G   26142.31180221  .00000379  00000+0  85335-4 0  9990
2 52900  98.2228 284.9300 0008912 105.3953 254.8233 14.61810271206669
CMS-02 (GSAT-24)        
1 52903U 22067A   26142.10671815 -.00000173  00000+0  00000+0 0  9990
2 52903   0.0270 257.9627 0002533 100.9607   2.2368  1.00271133 14345
MEASAT 3D               
1 52904U 22067B   26142.18358324 -.00000250  00000+0  00000+0 0  9992
2 52904   0.0315   1.7986 0001963   2.6804  32.9315  1.00271556 14387
YAOGAN-35 02A           
1 52907U 22068A   26142.12574313  .00005797  00000+0  23604-3 0  9997
2 52907  34.9921 302.6923 0010635 203.9372 156.0849 15.23786732217916
YAOGAN-35 02B           
1 52908U 22068B   26142.28338066  .00052289  00000+0  71686-3 0  9999
2 52908  34.9956 229.8844 0003808 151.9281 208.1650 15.56237623218659
GAOFEN-12 03            
1 52912U 22069A   26142.29429887  .00000202  00000+0  33419-4 0  9999
2 52912  97.8303  30.8135 0000839 107.2951 252.8353 14.79985439210781
SES-22                  
1 52933U 22071A   26142.31980634  .00000096  00000+0  00000+0 0  9996
2 52933   0.0105   8.5838 0001066  39.2825 168.2028  1.00272470  7269
DS-EO                   
1 52935U 22072A   26142.24835657  .00003973  00000+0  17035-3 0  9992
2 52935   9.9945  17.8194 0004354 297.1916  62.7855 15.13624490214570
POEM                    
1 52939U 22072E   26141.58020529  .00005563  00000+0  18471-3 0  9998
2 52939   9.9521 272.9293 0023345 164.3151 195.7790 15.23727166215442
WFOV (USA 332)          
1 52940U 22073A   26141.90004071 -.00000369  00000+0  00000+0 0  9996
2 52940   3.6458  78.8500 0002067 240.9151   3.0330  1.00269476 14103
COSMOS 2557 [GLONASS-K] 
1 52984U 22075A   26141.83039512 -.00000040  00000+0  00000+0 0  9992
2 52984  64.3147 315.4142 0010110 278.3928  81.4886  2.13101891 30157
STARLINK-4260           
1 52986U 22076A   26142.23794706 -.00000604  00000+0 -19889-4 0  9990
2 52986  53.2179 123.9477 0001287  83.6886 276.4252 15.08835299213946
STARLINK-4259           
1 52987U 22076B   26142.27750668 -.00000036  00000+0  15843-4 0  9998
2 52987  53.2164 133.7717 0001076  72.8667 287.2443 15.08836535213812
STARLINK-4291           
1 52988U 22076C   26142.23427165 -.00001461  00000+0 -73741-4 0  9993
2 52988  53.2179 123.9636 0001084  96.8552 263.2564 15.08833238213947
STARLINK-4293           
1 52989U 22076D   26142.33336806  .00084533  00000+0  26141-2 0  9995
2 52989  53.2180 129.0493 0001483  88.0654  28.6273 15.32795475  5842
STARLINK-4286           
1 52990U 22076E   26142.27014738  .00001159  00000+0  90960-4 0  9992
2 52990  53.2168 133.8073 0001200  93.7938 266.3191 15.08821698213810
STARLINK-4285           
1 52991U 22076F   26142.13398849 -.00000740  00000+0 -28439-4 0  9995
2 52991  53.2161 134.4196 0000938  59.2501 300.8584 15.08842833213798
STARLINK-4269           
1 52992U 22076G   26142.26374079 -.00000394  00000+0 -66389-5 0  9991
2 52992  53.2167 133.8433 0001228  73.3427 286.7700 15.08840295213814
STARLINK-4256           
1 52994U 22076J   26142.22689296  .00000871  00000+0  72764-4 0  9990
2 52994  53.2184 123.9971 0001381  77.1554 282.9592 15.08847374213941
STARLINK-4296           
1 52995U 22076K   26142.15332220  .00000541  00000+0  52094-4 0  9993
2 52995  53.2175 124.3267 0001687  64.4321 295.6845 15.08834417213930
STARLINK-4295           
1 52996U 22076L   26142.24997614  .00000452  00000+0  46458-4 0  9996
2 52996  53.2165 124.1777 0001217  76.8116 283.3012 15.08838068213949
STARLINK-4254           
1 52998U 22076N   26142.20849754  .00000451  00000+0  46431-4 0  9995
2 52998  53.2172 123.9931 0001332  86.0606 274.0539 15.08840295213949
STARLINK-4217           
1 52999U 22076P   26142.13490904  .00000573  00000+0  54093-4 0  9995
2 52999  53.2170 124.4118 0001305  75.3474 284.7663 15.08836538213935
